{"type": "FeatureCollection", "features": [ {"type": "Feature", "properties": {"norad_id": 34833, "name": "IRIDIUM 33 DEB", "group": "iridium-33-debris", "lat": 41.712187361897456, "lon": -128.3514131722191, "alt_km": 699.994453726008, "timestamp": "2025-12-03T17:47:51.103154+00:00", "meta": {"OBJECT_NAME": "IRIDIUM 33 DEB", "OBJECT_ID": "1997-051MH", "EPOCH": "2025-12-02T23:15:35.069760", "MEAN_MOTION": 14.52273941, "ECCENTRICITY": 0.00215243, "INCLINATION": 86.3939, "RA_OF_ASC_NODE": 55.2036, "ARG_OF_PERICENTER": 128.6325, "MEAN_ANOMALY": 293.7121, "EPHEMERIS_TYPE": 0, "CLASSIFICATION_TYPE": "U", "NORAD_CAT_ID": 34833, "ELEMENT_SET_NO": 999, "REV_AT_EPOCH": 87573, "BSTAR": 0.0011259064, "MEAN_MOTION_DOT": 4.607e-05, "MEAN_MOTION_DDOT": 0}, "tle": {"line1": "1 34833U 97051MH  25336.96915590  .00004607  00000+0  11259-2 0  9992", "line2": "2 34833  86.3939  55.2036 0021524 128.6325 293.7121 14.52273941875736"}}, "geometry": {"type": "Point", "coordinates": [-128.3514131722191, 41.712187361897456]}}, {"type": "Feature", "properties": {"norad_id": 34870, "name": "IRIDIUM 33 DEB", "group": "iridium-33-debris", "lat": 55.06434610124483, "lon": -36.4935589524185, "alt_km": 646.3830379886176, "timestamp": "2025-12-03T17:47:51.103165+00:00", "meta": {"OBJECT_NAME": "IRIDIUM 33 DEB", "OBJECT_ID": "1997-051MQ", "EPOCH": "2025-12-01T05:36:37.151712", "MEAN_MOTION": 14.76055324, "ECCENTRICITY": 0.0014764, "INCLINATION": 86.3102, "RA_OF_ASC_NODE": 319.3536, "ARG_OF_PERICENTER": 227.1347, "MEAN_ANOMALY": 190.7112, "EPHEMERIS_TYPE": 0, "CLASSIFICATION_TYPE": "U", "NORAD_CAT_ID": 34870, "ELEMENT_SET_NO": 999, "REV_AT_EPOCH": 88741, "BSTAR": 0.0019021, "MEAN_MOTION_DOT": 0.00013168, "MEAN_MOTION_DDOT": 0}, "tle": {"line1": "1 34870U 97051MQ  25335.23376333  .00013168  00000+0  19021-2 0  9995", "line2": "2 34870  86.3102 319.3536 0014764 227.1347 190.7112 14.76055324887418"}}, "geometry": {"type": "Point", "coordinates": [-36.4935589524185, 55.06434610124483]}}, {"type": "Feature", "properties": {"norad_id": 34896, "name": "IRIDIUM 33 DEB", "group": "iridium-33-debris", "lat": -42.415903557878245, "lon": 154.08492990958044, "alt_km": 665.1319053255993, "timestamp": "2025-12-03T17:47:51.103176+00:00", "meta": {"OBJECT_NAME": "IRIDIUM 33 DEB", "OBJECT_ID": "1997-051MY", "EPOCH": "2025-12-02T06:27:15.824160", "MEAN_MOTION": 14.66099888, "ECCENTRICITY": 0.0023761, "INCLINATION": 86.3285, "RA_OF_ASC_NODE": 331.3819, "ARG_OF_PERICENTER": 253.426, "MEAN_ANOMALY": 121.6385, "EPHEMERIS_TYPE": 0, "CLASSIFICATION_TYPE": "U", "NORAD_CAT_ID": 34896, "ELEMENT_SET_NO": 999, "REV_AT_EPOCH": 87466, "BSTAR": 0.0012182, "MEAN_MOTION_DOT": 6.738e-05, "MEAN_MOTION_DDOT": 0}, "tle": {"line1": "1 34896U 97051MY  25336.26893315  .00006738  00000+0  12182-2 0  9997", "line2": "2 34896  86.3285 331.3819 0023761 253.4260 121.6385 14.66099888874669"}}, "geometry": {"type": "Point", "coordinates": [154.08492990958044, -42.415903557878245]}}, {"type": "Feature", "properties": {"norad_id": 34926, "name": "IRIDIUM 33 DEB", "group": "iridium-33-debris", "lat": -19.061058916060386, "lon": 11.104941335664265, "alt_km": 666.5545667878368, "timestamp": "2025-12-03T17:47:51.103186+00:00", "meta": {"OBJECT_NAME": "IRIDIUM 33 DEB", "OBJECT_ID": "1997-051NF", "EPOCH": "2025-12-02T20:58:36.078816", "MEAN_MOTION": 14.53691359, "ECCENTRICITY": 0.00769886, "INCLINATION": 86.1332, "RA_OF_ASC_NODE": 12.8456, "ARG_OF_PERICENTER": 326.4034, "MEAN_ANOMALY": 157.1189, "EPHEMERIS_TYPE": 0, "CLASSIFICATION_TYPE": "U", "NORAD_CAT_ID": 34926, "ELEMENT_SET_NO": 999, "REV_AT_EPOCH": 86313, "BSTAR": 0.0065509461, "MEAN_MOTION_DOT": 0.00028633, "MEAN_MOTION_DDOT": 0}, "tle": {"line1": "1 34926U 97051NF  25336.87402869  .00028633  00000+0  65509-2 0  9997", "line2": "2 34926  86.1332  12.8456 0076988 326.4034 157.1189 14.53691359863134"}}, "geometry": {"type": "Point", "coordinates": [11.104941335664265, -19.061058916060386]}}, {"type": "Feature", "properties": {"norad_id": 34985, "name": "IRIDIUM 33 DEB", "group": "iridium-33-debris", "lat": 42.291364879281566, "lon": -122.59336882668032, "alt_km": 754.4124146035165, "timestamp": "2025-12-03T17:47:51.103196+00:00", "meta": {"OBJECT_NAME": "IRIDIUM 33 DEB", "OBJECT_ID": "1997-051NR", "EPOCH": "2025-12-03T05:45:23.488416", "MEAN_MOTION": 14.41938778, "ECCENTRICITY": 0.0019898, "INCLINATION": 86.3698, "RA_OF_ASC_NODE": 60.9312, "ARG_OF_PERICENTER": 252.9312, "MEAN_ANOMALY": 162.0944, "EPHEMERIS_TYPE": 0, "CLASSIFICATION_TYPE": "U", "NORAD_CAT_ID": 34985, "ELEMENT_SET_NO": 999, "REV_AT_EPOCH": 87038, "BSTAR": 0.0010646, "MEAN_MOTION_DOT": 3.513e-05, "MEAN_MOTION_DDOT": 0}, "tle": {"line1": "1 34985U 97051NR  25337.23985519  .00003513  00000+0  10646-2 0  9993", "line2": "2 34985  86.3698  60.9312 0019898 252.9312 162.0944 14.41938778870385"}}, "geometry": {"type": "Point", "coordinates": [-122.59336882668032, 42.291364879281566]}}, {"type": "Feature", "properties": {"norad_id": 35051, "name": "IRIDIUM 33 DEB", "group": "iridium-33-debris", "lat": -69.53493747981445, "lon": -157.29953583677442, "alt_km": 746.3709841750897, "timestamp": "2025-12-03T17:47:51.103207+00:00", "meta": {"OBJECT_NAME": "IRIDIUM 33 DEB", "OBJECT_ID": "1997-051NX", "EPOCH": "2025-12-02T20:44:20.358528", "MEAN_MOTION": 14.47524123, "ECCENTRICITY": 0.00104766, "INCLINATION": 86.3255, "RA_OF_ASC_NODE": 13.167, "ARG_OF_PERICENTER": 117.6322, "MEAN_ANOMALY": 242.5946, "EPHEMERIS_TYPE": 0, "CLASSIFICATION_TYPE": "U", "NORAD_CAT_ID": 35051, "ELEMENT_SET_NO": 999, "REV_AT_EPOCH": 86853, "BSTAR": 0.00083073982, "MEAN_MOTION_DOT": 3.075e-05, "MEAN_MOTION_DDOT": 0}, "tle": {"line1": "1 35051U 97051NX  25336.86412452  .00003075  00000+0  83074-3 0  9996", "line2": "2 35051  86.3255  13.1670 0010476 117.6322 242.5946 14.47524123868538"}}, "geometry": {"type": "Point", "coordinates": [-157.29953583677442, -69.53493747981445]}}, {"type": "Feature", "properties": {"norad_id": 35052, "name": "IRIDIUM 33 DEB", "group": "iridium-33-debris", "lat": -27.503568343504188, "lon": 22.41958453944595, "alt_km": 776.5165643951286, "timestamp": "2025-12-03T17:47:51.103220+00:00", "meta": {"OBJECT_NAME": "IRIDIUM 33 DEB", "OBJECT_ID": "1997-051NY", "EPOCH": "2025-12-03T09:34:41.242944", "MEAN_MOTION": 14.38474519, "ECCENTRICITY": 0.0013556, "INCLINATION": 86.3319, "RA_OF_ASC_NODE": 24.4803, "ARG_OF_PERICENTER": 111.0544, "MEAN_ANOMALY": 249.2105, "EPHEMERIS_TYPE": 0, "CLASSIFICATION_TYPE": "U", "NORAD_CAT_ID": 35052, "ELEMENT_SET_NO": 999, "REV_AT_EPOCH": 87141, "BSTAR": 0.00028683, "MEAN_MOTION_DOT": 8.96e-06, "MEAN_MOTION_DDOT": 0}, "tle": {"line1": "1 35052U 97051NY  25337.39908846  .00000896  00000+0  28683-3 0  9996", "line2": "2 35052  86.3319  24.4803 0013556 111.0544 249.2105 14.38474519871414"}}, "geometry": {"type": "Point", "coordinates": [22.41958453944595, -27.503568343504188]}}, {"type": "Feature", "properties": {"norad_id": 35080, "name": "IRIDIUM 33 DEB", "group": "iridium-33-debris", "lat": 76.34257675387875, "lon": 72.51662291633014, "alt_km": 639.6200107860104, "timestamp": "2025-12-03T17:47:51.103231+00:00", "meta": {"OBJECT_NAME": "IRIDIUM 33 DEB", "OBJECT_ID": "1997-051PF", "EPOCH": "2025-12-03T04:30:09.217152", "MEAN_MOTION": 14.84042089, "ECCENTRICITY": 0.00639322, "INCLINATION": 86.2067, "RA_OF_ASC_NODE": 56.9348, "ARG_OF_PERICENTER": 212.1182, "MEAN_ANOMALY": 147.6141, "EPHEMERIS_TYPE": 0, "CLASSIFICATION_TYPE": "U", "NORAD_CAT_ID": 35080, "ELEMENT_SET_NO": 999, "REV_AT_EPOCH": 69546, "BSTAR": 0.011299497, "MEAN_MOTION_DOT": 0.00098836, "MEAN_MOTION_DDOT": 0}, "tle": {"line1": "1 35080U 97051PF  25337.18760668  .00098836  00000+0  11299-1 0  9996", "line2": "2 35080  86.2067  56.9348 0063932 212.1182 147.6141 14.84042089695466"}}, "geometry": {"type": "Point", "coordinates": [72.51662291633014, 76.34257675387875]}}, {"type": "Feature", "properties": {"norad_id": 35297, "name": "IRIDIUM 33 DEB", "group": "iridium-33-debris", "lat": 24.479222948102304, "lon": 68.24817453898694, "alt_km": 750.4773671347157, "timestamp": "2025-12-03T17:47:51.103241+00:00", "meta": {"OBJECT_NAME": "IRIDIUM 33 DEB", "OBJECT_ID": "1997-051PM", "EPOCH": "2025-11-28T13:02:32.385696", "MEAN_MOTION": 14.4505178, "ECCENTRICITY": 0.00162447, "INCLINATION": 86.3859, "RA_OF_ASC_NODE": 68.817, "ARG_OF_PERICENTER": 185.2069, "MEAN_ANOMALY": 174.8967, "EPHEMERIS_TYPE": 0, "CLASSIFICATION_TYPE": "U", "NORAD_CAT_ID": 35297, "ELEMENT_SET_NO": 999, "REV_AT_EPOCH": 70221, "BSTAR": 0.00072341306, "MEAN_MOTION_DOT": 2.549e-05, "MEAN_MOTION_DDOT": 0}, "tle": {"line1": "1 35297U 97051PM  25332.54343039  .00002549  00000+0  72341-3 0  9993", "line2": "2 35297  86.3859  68.8170 0016244 185.2069 174.8967 14.45051780702214"}}, "geometry": {"type": "Point", "coordinates": [68.24817453898694, 24.479222948102304]}}, {"type": "Feature", "properties": {"norad_id": 35299, "name": "IRIDIUM 33 DEB", "group": "iridium-33-debris", "lat": 82.70846796261603, "lon": -173.37403141750988, "alt_km": 714.0553951094134, "timestamp": "2025-12-03T17:47:51.103251+00:00", "meta": {"OBJECT_NAME": "IRIDIUM 33 DEB", "OBJECT_ID": "1997-051PP", "EPOCH": "2025-12-03T04:09:01.499328", "MEAN_MOTION": 14.4078031, "ECCENTRICITY": 0.0058614, "INCLINATION": 86.2893, "RA_OF_ASC_NODE": 37.3504, "ARG_OF_PERICENTER": 132.8527, "MEAN_ANOMALY": 256.2919, "EPHEMERIS_TYPE": 0, "CLASSIFICATION_TYPE": "U", "NORAD_CAT_ID": 35299, "ELEMENT_SET_NO": 999, "REV_AT_EPOCH": 86193, "BSTAR": 0.0010780004, "MEAN_MOTION_DOT": 3.539e-05, "MEAN_MOTION_DDOT": 0}, "tle": {"line1": "1 35299U 97051PP  25337.17293402  .00003539  00000+0  10780-2 0  9995", "line2": "2 35299  86.2893  37.3504 0058614 132.8527 256.2919 14.40780310861939"}}, "geometry": {"type": "Point", "coordinates": [-173.37403141750988, 82.70846796261603]}}]}